ONEWEB-0435             
1 51632U 22012L   26008.15028859  .00000833  00000+0  23505-2 0  9998
2 51632  87.8777  68.1867 0001633  88.8939 271.2376 13.10371441188355
ONEWEB-0436             
1 51633U 22012M   26008.59439522 -.00000013  00000+0 -65802-4 0  9990
2 51633  87.9094  37.5599 0001617  89.2266 270.9051 13.17649610192669
ONEWEB-0438             
1 51634U 22012N   26008.59182766  .00000086  00000+0  20969-3 0  9998
2 51634  87.8784  68.0998 0001942 103.1396 256.9948 13.10376166188444
ONEWEB-0439             
1 51635U 22012P   26008.59514782  .00000255  00000+0  69459-3 0  9991
2 51635  87.8784  68.0877 0001808  98.2321 261.9012 13.10375525188428
ONEWEB-0442             
1 51636U 22012Q   26008.58680772  .00000009  00000+0 -11036-4 0  9991
2 51636  87.9083  37.6065 0002234 106.5152 253.6225 13.17648493192650
ONEWEB-0443             
1 51637U 22012R   26008.60620798  .00000054  00000+0  10515-3 0  9996
2 51637  87.9083  37.6066 0002080  90.8831 269.2539 13.17649003192705
ONEWEB-0444             
1 51638U 22012S   26008.58518003 -.00000255  00000+0 -76770-3 0  9999
2 51638  87.8784  68.0884 0001767  98.8020 261.3307 13.10375918188433
ONEWEB-0445             
1 51639U 22012T   26008.60676473  .00000609  00000+0  17090-2 0  9999
2 51639  87.8797  68.0555 0001767 107.6055 252.5265 13.10372498188446
